STARLINK-36575
1 67569U 26016J   26090.83335647 -.01957522  00000+0 -32778-1 0  9994
2 67569  97.2839 152.4062 0001634  82.2571  94.7623 15.55378216  5988
STARLINK-36916
1 68022U 26040H   26090.83335647 -.01903578  00000+0 -31596-1 0  9995
2 68022  97.2851  40.3140 0001904  90.0672  31.6926 15.55510967  5996
